{"type": "FeatureCollection", "features": [{"type": "Feature", "properties": {"name": "Talamban", "city": "Cebu City", "psgc_code": "0702217081", "area_sqkm": 4.63, "source": "NAMRIA administrative boundaries (v2023-11-06), via bendlikeabamboo/barangay-boundaries-repository v2026.4.13.0"}, "geometry": {"type": "Polygon", "coordinates": [[[123.9193683310001, 10.380123290000029], [123.92577062600003, 10.36193750600006], [123.90887256500002, 10.351673878000042], [123.9049144060001, 10.372767244000045], [123.9193683310001, 10.380123290000029]]]}}]}